

1 49214U 21083AE  24149.45614863 -.00000674  00000+0 -18814-2 0  9993
2 49214  87.8914 109.4518 0002379  69.5860 290.5524 13.13472177132517


1 49215U 21083AF  24149.49424516  .00000084  00000+0  17566-3 0  9999
2 49215  87.9217  63.6085 0002740  94.1854 265.9593 13.20772219137812


1 49216U 21083AG  24149.43709935  .00000042  00000+0  79405-4 0  9990
2 49216  87.8919 109.4865 0002313  86.0172 274.1221 13.13467426132600


1 49217U 21083AH  24149.51962383  .00000054  00000+0  99950-4 0  9998
2 49217  87.9223  63.5878 0002102  68.8958 291.2400 13.20770138137856


1 49218U 21083AJ  24149.39108315 -.00000061  00000+0 -20276-3 0  9996
2 49218  87.8915 109.4948 0002169  81.5940 278.5435 13.13469575132479


1 49219U 21083AK  24149.51645847 -.00000199  00000+0 -52118-3 0  9999
2 49219  87.9218  63.6075 0002236  79.1665 280.9720 13.20773297137859


1 49279U 21090A   24149.53457117 -.00000134  00000+0 -39480-3 0  9992
2 49279  87.8964  78.8763 0002156  90.3917 269.7460 13.14502339129093


1 49280U 21090B   24149.50699826  .00000023  00000+0  23710-4 0  9991
2 49280  87.9220  63.6078 0002095  91.7994 268.3379 13.20769606132080
